OBJECT_NAME,OBJECT_ID,EPOCH,MEAN_MOTION,ECCENTRICITY,INCLINATION,RA_OF_ASC_NODE,ARG_OF_PERICENTER,MEAN_ANOMALY,EPHEMERIS_TYPE,CLASSIFICATION_TYPE,NORAD_CAT_ID,ELEMENT_SET_NO,REV_AT_EPOCH,BSTAR,MEAN_MOTION_DOT,MEAN_MOTION_DDOT
KUIPER-00191,2025-301L,2026-06-05T00:01:11.549568,14.79931618,.0000771,51.9025,47.0571,60.3710,299.7329,0,U,67143,999,2658,.68767E-3,.5025E-4,0
KUIPER-00196,2025-301M,2026-06-05T04:00:03.000096,15.06327075,.0003973,51.8910,3.4892,304.2713,145.6135,0,U,67144,999,495,-.80992E-3,-.12313E-3,0
KUIPER-00204,2025-301N,2026-06-05T03:17:06.881280,14.83150444,.0002986,51.9004,18.9868,355.0430,5.0503,0,U,67145,999,2707,-.85865E-3,-.7292E-4,0
KUIPER-00210,2025-301P,2026-06-04T00:31:03.789696,14.79943849,.00007632,51.9004,51.3425,83.7217,276.3833,0,U,67146,999,2658,.43368365E-3,.3087E-4,0
KUIPER-00221,2025-301Q,2026-06-03T23:30:48.475008,14.79931848,.00008292,51.9023,59.0451,99.0250,261.0807,0,U,67147,999,2630,.1599279E-3,.998E-5,0
KUIPER-00232,2025-301R,2026-06-04T23:24:07.777728,14.79941496,.0001319,51.9010,39.6764,121.0627,239.0465,0,U,67148,999,2665,.28195E-3,.1929E-4,0
KUIPER-00241,2025-301S,2026-06-04T23:57:12.134304,14.79942290,.0000666,51.9027,49.5599,97.5244,262.5794,0,U,67149,999,2685,.34931E-3,.2443E-4,0
KUIPER-00245,2025-301T,2026-06-04T01:04:08.903136,14.79935765,.00008122,51.9032,61.2880,103.0817,257.0236,0,U,67150,999,2627,.40433453E-3,.2863E-4,0
KUIPER-00246,2025-301U,2026-06-04T23:20:14.535744,14.79937193,.0000709,51.8993,42.1406,107.7572,252.3467,0,U,67151,999,2664,.36101E-3,.2532E-4,0
KUIPER-00247,2025-301V,2026-06-03T23:17:06.456768,14.79936665,.0000679,51.8965,36.5674,102.1511,257.9527,0,U,67152,999,2661,.39379315E-3,.2782E-4,0
KUIPER-00248,2025-301W,2026-06-02T20:20:19.500288,14.76595021,.00016634,51.8987,23.5222,28.2628,331.8423,0,U,67153,999,2686,.36944821E-3,.2389E-4,0
KUIPER-00249,2025-301X,2026-06-03T23:21:00.602496,14.79931062,.00008183,51.8995,34.0987,91.6476,268.4580,0,U,67154,999,2664,.74590789E-4,.347E-5,0
KUIPER-00250,2025-301Y,2026-06-05T00:04:57.203904,14.79928397,.0000564,51.8986,44.5006,89.4312,270.6715,0,U,67155,999,2662,.21459E-3,.1415E-4,0
KUIPER-00251,2025-301Z,2026-06-05T04:00:03.000096,14.79921871,.0000923,51.9007,31.3394,159.4056,279.0309,0,U,67156,999,434,.26407E-2,.19964E-3,0
KUIPER-00252,2025-301AA,2026-06-03T07:49:23.057184,14.79928295,.00007548,51.9012,41.9297,137.6440,222.4581,0,U,67157,999,2648,-.40774322E-3,-.3328E-4,0
KUIPER-00261,2025-301AB,2026-06-01T04:30:45.047232,14.79929403,.00006753,51.9037,61.4281,97.9549,262.1490,0,U,67158,999,2602,.86592275E-4,.439E-5,0
KUIPER-00265,2025-301AC,2026-06-04T23:41:41.203680,14.79937687,.00006,51.9018,59.6059,110.4169,249.6858,0,U,67159,999,2641,.32571E-3,.2263E-4,0
GSAT0233 (GALILEO 33),2025-302A,2026-06-04T16:25:14.919744,1.70474377,.00013491,54.3286,102.4877,235.7171,167.4266,0,U,67160,999,291,0,.15E-6,0
GSAT0234 (GALILEO 34),2025-302C,2026-06-03T20:33:01.967328,1.70474390,.0003271,54.3286,102.5103,302.9496,132.1778,0,U,67162,999,295,0,.1E-6,0
STARLINK-35755,2025-303A,2026-06-05T02:24:19.734624,15.27660658,.0001427,43.0010,177.0555,312.2033,47.8697,0,U,67163,999,2610,.91686E-3,.25116E-3,0
STARLINK-36201,2025-303B,2026-06-02T09:25:03.777312,15.27599199,.00013873,42.9972,191.9911,51.8550,308.2427,0,U,67164,999,2569,.74817925E-3,.20395E-3,0
STARLINK-36186,2025-303C,2026-06-04T11:43:37.437600,15.27622356,.00025304,42.9943,180.2006,20.3255,339.7697,0,U,67165,999,2601,.85504535E-3,.23373E-3,0
STARLINK-36174,2025-303D,2026-06-01T10:16:45.503616,15.27590560,.00013005,43.0009,197.6564,271.6491,88.4212,0,U,67166,999,2554,.5966152E-3,.16197E-3,0
STARLINK-36198,2025-303E,2026-06-05T03:06:54.314784,15.27619078,.0002186,42.9956,177.2730,221.3864,138.6822,0,U,67167,999,2610,.81134E-3,.22159E-3,0
STARLINK-35903,2025-303F,2026-06-05T02:05:49.560288,15.27658279,.0002292,43.0003,176.9585,304.0837,55.9797,0,U,67168,999,2610,.92641E-3,.2538E-3,0
STARLINK-35839,2025-303G,2026-06-03T22:55:46.080480,15.27638284,.00003914,42.9959,183.9420,216.7728,143.3097,0,U,67169,999,2592,.90345364E-3,.24727E-3,0
STARLINK-35863,2025-303H,2026-06-05T04:29:55.993632,15.27575018,.00015,43.0016,176.8509,264.8867,95.1814,0,U,67170,999,2611,.61626E-3,.16732E-3,0
STARLINK-35771,2025-303J,2026-06-05T03:03:11.179008,15.27572496,.0001314,42.9989,177.2601,305.4401,54.6328,0,U,67171,999,2610,.68114E-3,.18524E-3,0
STARLINK-35762,2025-303K,2026-06-01T11:06:43.219008,15.27588311,.00017406,43.0007,197.9210,277.0679,82.9975,0,U,67172,999,2554,.53037082E-3,.14365E-3,0
STARLINK-36183,2025-303L,2026-06-05T02:48:22.701888,15.27647065,.000093,43.0000,177.1801,240.5680,119.5079,0,U,67173,999,2610,.74779E-3,.20415E-3,0
