KUIPER-00191            
1 67143U 25301L   26156.00082812  .00005025  00000+0  68767-3 0  9991
2 67143  51.9025  47.0571 0000771  60.3710 299.7329 14.79931618 26582
KUIPER-00196            
1 67144U 25301M   26156.16670139 -.00012313  00000+0 -80992-3 0  9998
2 67144  51.8910   3.4892 0003973 304.2713 145.6135 15.06327075  4955
KUIPER-00204            
1 67145U 25301N   26156.13688520 -.00007292  00000+0 -85865-3 0  9993
2 67145  51.9004  18.9868 0002986 355.0430   5.0503 14.83150444 27072
KUIPER-00210            
1 67146U 25301P   26155.02157164  .00003087  00000+0  43368-3 0  9994
2 67146  51.9004  51.3425 0000763  83.7217 276.3833 14.79943849 26580
KUIPER-00221            
1 67147U 25301Q   26154.97972772  .00000998  00000+0  15993-3 0  9999
2 67147  51.9023  59.0451 0000829  99.0250 261.0807 14.79931848 26304
KUIPER-00232            
1 67148U 25301R   26155.97509002  .00001929  00000+0  28195-3 0  9996
2 67148  51.9010  39.6764 0001319 121.0627 239.0465 14.79941496 26654
KUIPER-00241            
1 67149U 25301S   26155.99805711  .00002443  00000+0  34931-3 0  9992
2 67149  51.9027  49.5599 0000666  97.5244 262.5794 14.79942290 26856
KUIPER-00245            
1 67150U 25301T   26155.04454749  .00002863  00000+0  40433-3 0  9991
2 67150  51.9032  61.2880 0000812 103.0817 257.0236 14.79935765 26275
KUIPER-00246            
1 67151U 25301U   26155.97239046  .00002532  00000+0  36101-3 0  9995
2 67151  51.8993  42.1406 0000709 107.7572 252.3467 14.79937193 26649
KUIPER-00247            
1 67152U 25301V   26154.97021362  .00002782  00000+0  39379-3 0  9992
2 67152  51.8965  36.5674 0000679 102.1511 257.9527 14.79936665 26619
KUIPER-00248            
1 67153U 25301W   26153.84744792  .00002389  00000+0  36945-3 0  9996
2 67153  51.8987  23.5222 0001663  28.2628 331.8423 14.76595021 26868
KUIPER-00249            
1 67154U 25301X   26154.97292364  .00000347  00000+0  74591-4 0  9997
2 67154  51.8995  34.0987 0000818  91.6476 268.4580 14.79931062 26646
KUIPER-00250            
1 67155U 25301Y   26156.00343986  .00001415  00000+0  21459-3 0  9992
2 67155  51.8986  44.5006 0000564  89.4312 270.6715 14.79928397 26627
KUIPER-00251            
1 67156U 25301Z   26156.16670139  .00019964  00000+0  26407-2 0  9998
2 67156  51.9007  31.3394 0000923 159.4056 279.0309 14.79921871  4346
KUIPER-00252            
1 67157U 25301AA  26154.32596131 -.00003328  00000+0 -40774-3 0  9997
2 67157  51.9012  41.9297 0000754 137.6440 222.4581 14.79928295 26489
KUIPER-00261            
1 67158U 25301AB  26152.18802138  .00000439  00000+0  86592-4 0  9994
2 67158  51.9037  61.4281 0000675  97.9549 262.1490 14.79929403 26029
KUIPER-00265            
1 67159U 25301AC  26155.98728245  .00002263  00000+0  32571-3 0  9996
2 67159  51.9018  59.6059 0000600 110.4169 249.6858 14.79937687 26412
GSAT0233 (GALILEO 33)   
1 67160U 25302A   26155.68420046  .00000015  00000+0  00000+0 0  9995
2 67160  54.3286 102.4877 0001349 235.7171 167.4266  1.70474377  2916
GSAT0234 (GALILEO 34)   
1 67162U 25302C   26154.85627277  .00000010  00000+0  00000+0 0  9995
2 67162  54.3286 102.5103 0003271 302.9496 132.1778  1.70474390  2950
STARLINK-35755          
1 67163U 25303A   26156.10022841  .00025116  00000+0  91686-3 0  9991
2 67163  43.0010 177.0555 0001427 312.2033  47.8697 15.27660658 26107
STARLINK-36201          
1 67164U 25303B   26153.39240483  .00020395  00000+0  74818-3 0  9996
2 67164  42.9972 191.9911 0001387  51.8550 308.2427 15.27599199 25698
STARLINK-36186          
1 67165U 25303C   26155.48862775  .00023373  00000+0  85505-3 0  9997
2 67165  42.9943 180.2006 0002530  20.3255 339.7697 15.27622356 26014
STARLINK-36174          
1 67166U 25303D   26152.42830444  .00016197  00000+0  59662-3 0  9998
2 67166  43.0009 197.6564 0001300 271.6491  88.4212 15.27590560 25547
STARLINK-36198          
1 67167U 25303E   26156.12979531  .00022159  00000+0  81134-3 0  9995
2 67167  42.9956 177.2730 0002186 221.3864 138.6822 15.27619078 26109
STARLINK-35903          
1 67168U 25303F   26156.08737917  .00025380  00000+0  92641-3 0  9995
2 67168  43.0003 176.9585 0002292 304.0837  55.9797 15.27658279 26104
STARLINK-35839          
1 67169U 25303G   26154.95539445  .00024727  00000+0  90345-3 0  9999
2 67169  42.9959 183.9420 0000391 216.7728 143.3097 15.27638284 25923
STARLINK-35863          
1 67170U 25303H   26156.18745363  .00016732  00000+0  61626-3 0  9993
2 67170  43.0016 176.8509 0001500 264.8867  95.1814 15.27575018 26119
STARLINK-35771          
1 67171U 25303J   26156.12721272  .00018524  00000+0  68114-3 0  9991
2 67171  42.9989 177.2601 0001314 305.4401  54.6328 15.27572496 26100
STARLINK-35762          
1 67172U 25303K   26152.46300022  .00014365  00000+0  53037-3 0  9998
2 67172  43.0007 197.9210 0001740 277.0679  82.9975 15.27588311 25545
STARLINK-36183          
1 67173U 25303L   26156.11692942  .00020415  00000+0  74779-3 0  9999
2 67173  43.0000 177.1801 0000930 240.5680 119.5079 15.27647065 26109
